*******************************************************************************
Ephemeris / WWW_USER Mon Mar 24 12:05:26 2025 Pasadena, USA      / Horizons    
*******************************************************************************
Target body name: 768325 (2015 BP519)             {source: JPL#13}
Center body name: Earth (399)                     {source: DE441}
Center-site name: Gemini South Obs., Cerro Pachon
*******************************************************************************
Start time      : A.D. 2018-Aug-09 22:23:00.0000 UT      
Stop  time      : A.D. 2018-Aug-10 11:13:00.0000 UT      
Step-size       : 1 minutes
*******************************************************************************
Target pole/equ : undefined
Target radii    : undefined                                                    
Center geodetic : 289.2634, -30.2406227, 2.71233  {E-lon(deg),Lat(deg),Alt(km)}
Center cylindric: 289.2634,5517.21435,-3194.81213 {E-lon(deg),Dxy(km),Dz(km)}
Center pole/equ : ITRF93                          {East-longitude positive}
Center radii    : 6378.137, 6378.137, 6356.752 km {Equator_a, b, pole_c}       
Target primary  : Sun
Vis. interferer : MOON (R_eq= 1737.400) km        {source: DE441}
Rel. light bend : Sun                             {source: DE441}
Rel. lght bnd GM: 1.3271E+11 km^3/s^2                                          
Small-body perts: Yes                             {source: SB441-N16}
Atmos refraction: NO (AIRLESS)
RA format       : HMS
Time format     : CAL 
Calendar mode   : Mixed Julian/Gregorian
RTS-only print  : NO       
EOP file        : eop.250321.p250617                                           
EOP coverage    : DATA-BASED 1962-JAN-20 TO 2025-MAR-21. PREDICTS-> 2025-JUN-16
Units conversion: 1 au= 149597870.700 km, c= 299792.458 km/s, 1 day= 86400.0 s 
Table cut-offs 1: Elevation (-90.0deg=NO ),Airmass (>38.000=NO), Daylight (YES)
Table cut-offs 2: Solar elongation (  0.0,180.0=NO ),Local Hour Angle( 0.0=NO )
Table cut-offs 3: RA/DEC angular rate (     0.0=NO )                           
*******************************************************************************
Initial IAU76/J2000 heliocentric ecliptic osculating elements (au, days, deg.):
  EPOCH=  2459486.5 ! 2021-Sep-29.00 (TDB)         Residual RMS= .071772       
   EC= .9216453194433936   QR= 35.32438628437644   TP= 2473006.6899544764      
   OM= 135.0347983875217   W=  347.957608556413    IN= 54.13315864151695       
  Equivalent ICRF heliocentric cartesian coordinates (au, au/d):
   X= 1.447262462803667E+01  Y= 4.058013389773870E+01  Z=-2.635496110070412E+01
  VX=-2.666905795807619E-03 VY= 1.989051018714909E-05 VZ= 1.987184001515517E-03
Asteroid physical parameters (km, seconds, rotational period in hours):        
   GM= n.a.                RAD= n.a.               ROTPER= n.a.                
   H= 4.34                 G= .150                 B-V= n.a.                   
                           ALBEDO= n.a.            STYP= n.a.                  
*******************************************************************************
 Date__(UT)__HR:MN     R.A._________(ICRF)_________DEC
******************************************************
$$SOE
 2018-Aug-10 06:35     04 31 20.340660 -32 31 08.28030
 2018-Aug-10 06:36     04 31 20.342513 -32 31 08.31095
 2018-Aug-10 06:37     04 31 20.344366 -32 31 08.34160
 2018-Aug-10 06:38     04 31 20.346218 -32 31 08.37224
 2018-Aug-10 06:39     04 31 20.348070 -32 31 08.40289
 2018-Aug-10 06:40     04 31 20.349923 -32 31 08.43354
 2018-Aug-10 06:41     04 31 20.351774 -32 31 08.46419
 2018-Aug-10 06:42     04 31 20.353626 -32 31 08.49484
 2018-Aug-10 06:43     04 31 20.355477 -32 31 08.52548
 2018-Aug-10 06:44     04 31 20.357328 -32 31 08.55613
 2018-Aug-10 06:45     04 31 20.359179 -32 31 08.58678
 2018-Aug-10 06:46     04 31 20.361029 -32 31 08.61742
 2018-Aug-10 06:47     04 31 20.362880 -32 31 08.64807
 2018-Aug-10 06:48     04 31 20.364730 -32 31 08.67872
 2018-Aug-10 06:49     04 31 20.366580 -32 31 08.70937
 2018-Aug-10 06:50     04 31 20.368429 -32 31 08.74001
 2018-Aug-10 06:51     04 31 20.370278 -32 31 08.77066
 2018-Aug-10 06:52     04 31 20.372127 -32 31 08.80131
 2018-Aug-10 06:53     04 31 20.373976 -32 31 08.83195
 2018-Aug-10 06:54     04 31 20.375825 -32 31 08.86260
 2018-Aug-10 06:55     04 31 20.377673 -32 31 08.89325
 2018-Aug-10 06:56     04 31 20.379521 -32 31 08.92389
 2018-Aug-10 06:57     04 31 20.381369 -32 31 08.95454
 2018-Aug-10 06:58     04 31 20.383216 -32 31 08.98519
 2018-Aug-10 06:59     04 31 20.385063 -32 31 09.01583
 2018-Aug-10 07:00     04 31 20.386910 -32 31 09.04648
 2018-Aug-10 07:01     04 31 20.388757 -32 31 09.07712
 2018-Aug-10 07:02     04 31 20.390604 -32 31 09.10777
 2018-Aug-10 07:03     04 31 20.392450 -32 31 09.13841
 2018-Aug-10 07:04     04 31 20.394296 -32 31 09.16906
 2018-Aug-10 07:05     04 31 20.396142 -32 31 09.19970
 2018-Aug-10 07:06     04 31 20.397987 -32 31 09.23035
 2018-Aug-10 07:07     04 31 20.399832 -32 31 09.26099
 2018-Aug-10 07:08     04 31 20.401677 -32 31 09.29164
 2018-Aug-10 07:09     04 31 20.403522 -32 31 09.32228
 2018-Aug-10 07:10     04 31 20.405367 -32 31 09.35292
 2018-Aug-10 07:11     04 31 20.407211 -32 31 09.38357
 2018-Aug-10 07:12     04 31 20.409055 -32 31 09.41421
 2018-Aug-10 07:13     04 31 20.410899 -32 31 09.44486
 2018-Aug-10 07:14     04 31 20.412742 -32 31 09.47550
 2018-Aug-10 07:15     04 31 20.414586 -32 31 09.50614
 2018-Aug-10 07:16     04 31 20.416429 -32 31 09.53678
 2018-Aug-10 07:17     04 31 20.418271 -32 31 09.56743
 2018-Aug-10 07:18     04 31 20.420114 -32 31 09.59807
 2018-Aug-10 07:19     04 31 20.421956 -32 31 09.62871
 2018-Aug-10 07:20     04 31 20.423798 -32 31 09.65935
 2018-Aug-10 07:21     04 31 20.425640 -32 31 09.68999
 2018-Aug-10 07:22     04 31 20.427482 -32 31 09.72063
 2018-Aug-10 07:23     04 31 20.429323 -32 31 09.75127
 2018-Aug-10 07:24     04 31 20.431164 -32 31 09.78191
 2018-Aug-10 07:25     04 31 20.433005 -32 31 09.81255
 2018-Aug-10 07:26     04 31 20.434845 -32 31 09.84319
 2018-Aug-10 07:27     04 31 20.436686 -32 31 09.87383
 2018-Aug-10 07:28     04 31 20.438526 -32 31 09.90447
 2018-Aug-10 07:29     04 31 20.440366 -32 31 09.93511
 2018-Aug-10 07:30     04 31 20.442205 -32 31 09.96575
 2018-Aug-10 07:31     04 31 20.444045 -32 31 09.99639
 2018-Aug-10 07:32     04 31 20.445884 -32 31 10.02702
 2018-Aug-10 07:33     04 31 20.447723 -32 31 10.05766
 2018-Aug-10 07:34     04 31 20.449562 -32 31 10.08830
 2018-Aug-10 07:35     04 31 20.451400 -32 31 10.11893
 2018-Aug-10 07:36     04 31 20.453238 -32 31 10.14957
 2018-Aug-10 07:37     04 31 20.455076 -32 31 10.18021
 2018-Aug-10 07:38     04 31 20.456914 -32 31 10.21084
 2018-Aug-10 07:39     04 31 20.458751 -32 31 10.24148
 2018-Aug-10 07:40     04 31 20.460589 -32 31 10.27211
 2018-Aug-10 07:41     04 31 20.462426 -32 31 10.30275
 2018-Aug-10 07:42     04 31 20.464262 -32 31 10.33338
 2018-Aug-10 07:43     04 31 20.466099 -32 31 10.36401
 2018-Aug-10 07:44     04 31 20.467935 -32 31 10.39465
 2018-Aug-10 07:45     04 31 20.469771 -32 31 10.42528
 2018-Aug-10 07:46     04 31 20.471607 -32 31 10.45591
 2018-Aug-10 07:47     04 31 20.473443 -32 31 10.48654
 2018-Aug-10 07:48     04 31 20.475278 -32 31 10.51717
 2018-Aug-10 07:49     04 31 20.477113 -32 31 10.54780
 2018-Aug-10 07:50     04 31 20.478948 -32 31 10.57844
 2018-Aug-10 07:51     04 31 20.480783 -32 31 10.60907
 2018-Aug-10 07:52     04 31 20.482617 -32 31 10.63969
 2018-Aug-10 07:53     04 31 20.484451 -32 31 10.67032
 2018-Aug-10 07:54     04 31 20.486285 -32 31 10.70095
 2018-Aug-10 07:55     04 31 20.488119 -32 31 10.73158
 2018-Aug-10 07:56     04 31 20.489952 -32 31 10.76221
 2018-Aug-10 07:57     04 31 20.491786 -32 31 10.79283
 2018-Aug-10 07:58     04 31 20.493619 -32 31 10.82346
 2018-Aug-10 07:59     04 31 20.495452 -32 31 10.85409
 2018-Aug-10 08:00     04 31 20.497284 -32 31 10.88471
 2018-Aug-10 08:01     04 31 20.499116 -32 31 10.91534
 2018-Aug-10 08:02     04 31 20.500949 -32 31 10.94596
 2018-Aug-10 08:03     04 31 20.502781 -32 31 10.97659
 2018-Aug-10 08:04     04 31 20.504612 -32 31 11.00721
 2018-Aug-10 08:05     04 31 20.506444 -32 31 11.03783
 2018-Aug-10 08:06     04 31 20.508275 -32 31 11.06845
 2018-Aug-10 08:07     04 31 20.510106 -32 31 11.09908
 2018-Aug-10 08:08     04 31 20.511937 -32 31 11.12970
 2018-Aug-10 08:09     04 31 20.513767 -32 31 11.16032
 2018-Aug-10 08:10     04 31 20.515598 -32 31 11.19094
 2018-Aug-10 08:11     04 31 20.517428 -32 31 11.22156
 2018-Aug-10 08:12     04 31 20.519257 -32 31 11.25218
 2018-Aug-10 08:13     04 31 20.521087 -32 31 11.28280
 2018-Aug-10 08:14     04 31 20.522917 -32 31 11.31341
 2018-Aug-10 08:15     04 31 20.524746 -32 31 11.34403
 2018-Aug-10 08:16     04 31 20.526575 -32 31 11.37465
 2018-Aug-10 08:17     04 31 20.528404 -32 31 11.40526
 2018-Aug-10 08:18     04 31 20.530232 -32 31 11.43588
 2018-Aug-10 08:19     04 31 20.532060 -32 31 11.46649
 2018-Aug-10 08:20     04 31 20.533889 -32 31 11.49711
 2018-Aug-10 08:21     04 31 20.535716 -32 31 11.52772
 2018-Aug-10 08:22     04 31 20.537544 -32 31 11.55833
 2018-Aug-10 08:23     04 31 20.539372 -32 31 11.58895
 2018-Aug-10 08:24     04 31 20.541199 -32 31 11.61956
 2018-Aug-10 08:25     04 31 20.543026 -32 31 11.65017
 2018-Aug-10 08:26     04 31 20.544853 -32 31 11.68078
 2018-Aug-10 08:27     04 31 20.546679 -32 31 11.71139
 2018-Aug-10 08:28     04 31 20.548506 -32 31 11.74200
 2018-Aug-10 08:29     04 31 20.550332 -32 31 11.77260
 2018-Aug-10 08:30     04 31 20.552158 -32 31 11.80321
 2018-Aug-10 08:31     04 31 20.553984 -32 31 11.83382
 2018-Aug-10 08:32     04 31 20.555809 -32 31 11.86443
 2018-Aug-10 08:33     04 31 20.557634 -32 31 11.89503
 2018-Aug-10 08:34     04 31 20.559460 -32 31 11.92564
 2018-Aug-10 08:35     04 31 20.561284 -32 31 11.95624
 2018-Aug-10 08:36     04 31 20.563109 -32 31 11.98684
 2018-Aug-10 08:37     04 31 20.564934 -32 31 12.01745
